{"type":"Feature","properties":{"MUN":"DENNIS TWP","COUNTY":"CAPE MAY","MUN_LABEL":"Dennis Township","MUN_TYPE":"Township","NAME":"Dennis Township","GNIS_NAME":"Township of Dennis"},"geometry":{"type":"Polygon","coordinates":[[[-74.7296043,39.1998056],[-74.7700517,39.1737108],[-74.7628356,39.1595093],[-74.7732513,39.1444989],[-74.7999119,39.1510414],[-74.8001298,39.1510109],[-74.800415,39.1510303],[-74.8009567,39.1511651],[-74.8014012,39.1513204],[-74.8018895,39.1514894],[-74.802081,39.1515671],[-74.8021524,39.1515972],[-74.8022206,39.1516197],[-74.8022789,39.1516246],[-74.8023275,39.1516195],[-74.8023826,39.1516168],[-74.8024376,39.1516166],[-74.8024798,39.1516317],[-74.8025188,39.1516568],[-74.8025514,39.1517046],[-74.8026196,39.1517398],[-74.8027623,39.1517773],[-74.8031952,39.1518531],[-74.8033899,39.1519207],[-74.803669,39.1520385],[-74.8040456,39.1522091],[-74.8044171,39.152333],[-74.804732,39.1524936],[-74.8050245,39.1526871],[-74.8054889,39.1529457],[-74.8060144,39.1532422],[-74.806093,39.1532896],[-74.8061706,39.1533374],[-74.80621,39.1533613],[-74.8062731,39.1534152],[-74.8063238,39.1534632],[-74.8064864,39.1535889],[-74.8066042,39.1536649],[-74.8066788,39.1536899],[-74.8067647,39.1537048],[-74.8068425,39.1537147],[-74.8069397,39.1537069],[-74.8070692,39.1536826],[-74.8071518,39.1536723],[-74.807253,39.1536726],[-74.8073324,39.1536813],[-74.8073892,39.153695],[-74.8074412,39.1537264],[-74.8074785,39.1537465],[-74.8075224,39.1537829],[-74.8075989,39.1538609],[-74.8076575,39.1539163],[-74.8076964,39.1539439],[-74.8077532,39.1539627],[-74.8078278,39.1539751],[-74.807891,39.153985],[-74.8079373,39.1540032],[-74.8080152,39.1540332],[-74.8080898,39.154052],[-74.8081806,39.1540732],[-74.8082779,39.1541032],[-74.8083656,39.1541333],[-74.8084321,39.1541722],[-74.808468,39.1542124],[-74.8084843,39.1542502],[-74.8085008,39.1543107],[-74.8085172,39.1543586],[-74.8085262,39.154387],[-74.8085571,39.1544197],[-74.8086206,39.1544851],[-74.8086905,39.1545442],[-74.8087313,39.154592],[-74.8087622,39.1546386],[-74.8087835,39.154684],[-74.808782,39.1547193],[-74.8087757,39.1547471],[-74.8087774,39.1547723],[-74.8087937,39.1548038],[-74.808823,39.1548302],[-74.8088733,39.154849],[-74.8089398,39.1548564],[-74.8090111,39.1548675],[-74.8090817,39.1548995],[-74.8091613,39.1549447],[-74.8092165,39.1549672],[-74.8092505,39.1549684],[-74.8092796,39.1549608],[-74.8093022,39.1549468],[-74.8093281,39.1549266],[-74.8093701,39.1548975],[-74.8094169,39.1548759],[-74.8095188,39.1548378],[-74.809598,39.1547897],[-74.8096772,39.1547478],[-74.8097467,39.1547047],[-74.8097904,39.1546958],[-74.8098244,39.1546982],[-74.8098587,39.1547135],[-74.8102892,39.1549562],[-74.810638,39.155125],[-74.8108909,39.1552434],[-74.8113085,39.1553848],[-74.8115266,39.1554384],[-74.8118235,39.1554628],[-74.8121806,39.1554619],[-74.8125016,39.1554264],[-74.8129478,39.1553861],[-74.813233,39.1553511],[-74.8133208,39.1553409],[-74.8134361,39.1553421],[-74.8136374,39.1553501],[-74.8138369,39.1553666],[-74.8140227,39.155406],[-74.8142736,39.1554594],[-74.8143267,39.1554693],[-74.8143614,39.1554663],[-74.8145077,39.1554374],[-74.8147305,39.1553571],[-74.8148291,39.155297],[-74.8149532,39.1552397],[-74.8150993,39.155168],[-74.8153257,39.1550791],[-74.8154645,39.1550303],[-74.8155888,39.1549901],[-74.8157715,39.1549497],[-74.8158761,39.1549382],[-74.8160333,39.1550456],[-74.8164597,39.1553428],[-74.8166861,39.1554974],[-74.8169753,39.1556396],[-74.817333,39.155798],[-74.8175586,39.1559076],[-74.8175995,39.1559807],[-74.817615,39.1560941],[-74.8176122,39.156305],[-74.8176015,39.1564185],[-74.8176168,39.1564926],[-74.8176412,39.1565391],[-74.8176788,39.1565885],[-74.8177107,39.1566248],[-74.8177989,39.1566972],[-74.8178364,39.156735],[-74.8178702,39.1567654],[-74.8179095,39.1567827],[-74.8179506,39.1567855],[-74.8180104,39.1567883],[-74.8180571,39.1567751],[-74.8181093,39.1567531],[-74.8181335,39.1567312],[-74.8181483,39.1566963],[-74.8181482,39.1566759],[-74.8181331,39.1566425],[-74.8181105,39.1566047],[-74.8180935,39.1565641],[-74.8180915,39.1565291],[-74.8180913,39.156487],[-74.8180986,39.1564477],[-74.818117,39.1564025],[-74.8181355,39.1563574],[-74.8181559,39.1563122],[-74.8181669,39.1562715],[-74.818176,39.1562118],[-74.8181852,39.1561783],[-74.8182018,39.1561448],[-74.8182259,39.1560939],[-74.8182738,39.1560428],[-74.8183172,39.155988],[-74.8183631,39.1559216],[-74.8184079,39.1558495],[-74.8184351,39.1558114],[-74.8184572,39.1557895],[-74.8184832,39.1557769],[-74.8184956,39.1557709],[-74.8185639,39.1557414],[-74.8186134,39.1557274],[-74.81866,39.1557221],[-74.8186999,39.1557226],[-74.8187347,39.1557305],[-74.8188207,39.155766],[-74.8188811,39.1557993],[-74.818933,39.1558245],[-74.8190138,39.1558513],[-74.8191204,39.1558735],[-74.8192052,39.1558865],[-74.8192303,39.1558853],[-74.8192732,39.1558799],[-74.8193146,39.1558678],[-74.819336,39.1558567],[-74.819378,39.1558347],[-74.8193847,39.1558324],[-74.8194061,39.1558203],[-74.8194717,39.1557694],[-74.8195123,39.1557457],[-74.8195632,39.155726],[-74.8196039,39.1557201],[-74.8196475,39.1557211],[-74.8196931,39.1557331],[-74.8197353,39.1557497],[-74.8197894,39.1557685],[-74.8198324,39.1557811],[-74.819872,39.1557862],[-74.8199186,39.1557872],[-74.819943,39.1557837],[-74.8199711,39.1557721],[-74.8199976,39.1557599],[-74.8200205,39.1557437],[-74.8200389,39.1557252],[-74.8200705,39.1556796],[-74.8201101,39.1556162],[-74.8201568,39.1555475],[-74.8201936,39.1555054],[-74.8202216,39.155484],[-74.820243,39.1554747],[-74.820307,39.1554647],[-74.8203528,39.1554634],[-74.8203996,39.1554679],[-74.820412,39.1554691],[-74.820495,39.1554804],[-74.8206252,39.1554996],[-74.8208281,39.1555301],[-74.8209413,39.1555494],[-74.8210287,39.1555676],[-74.8211562,39.1556087],[-74.8212718,39.1556648],[-74.8213949,39.1557324],[-74.8214257,39.1557764],[-74.8214829,39.155822],[-74.8215938,39.1558687],[-74.8218155,39.1559268],[-74.8218927,39.1559514],[-74.8222176,39.1560015],[-74.82242,39.1560175],[-74.8225743,39.1560184],[-74.8227229,39.1560111],[-74.8228417,39.1560053],[-74.8229585,39.1559867],[-74.8230658,39.155967],[-74.8231828,39.1559425],[-74.8232227,39.1559355],[-74.8233162,39.1559235],[-74.8234501,39.1559093],[-74.8235707,39.1558993],[-74.8236842,39.15589],[-74.8237885,39.1558876],[-74.8238346,39.1558903],[-74.8238604,39.1558951],[-74.8238666,39.1558971],[-74.8240104,39.1559257],[-74.8241508,39.1559778],[-74.8242647,39.1560334],[-74.8243363,39.1560857],[-74.8243978,39.1561546],[-74.824438,39.1561987],[-74.8244402,39.1562063],[-74.8244777,39.1563506],[-74.8245336,39.1565383],[-74.8245893,39.156708],[-74.8246089,39.1567506],[-74.8246377,39.1568129],[-74.8246609,39.1568446],[-74.8247564,39.1569694],[-74.824901,39.1571416],[-74.824999,39.1572312],[-74.8251947,39.1573536],[-74.8254187,39.1574496],[-74.8255156,39.1574811],[-74.8257056,39.1575331],[-74.8259774,39.1575862],[-74.8262243,39.1576449],[-74.8263522,39.1576874],[-74.8264465,39.1577313],[-74.826531,39.157785],[-74.8266735,39.1578923],[-74.826816,39.1580273],[-74.8269409,39.1581596],[-74.8270845,39.1583277],[-74.8271683,39.1584242],[-74.8272485,39.1584986],[-74.8273233,39.1585591],[-74.8274247,39.1586238],[-74.8275137,39.1586677],[-74.8276576,39.1587226],[-74.8277989,39.1587664],[-74.8279232,39.1587992],[-74.8283601,39.1588809],[-74.8287242,39.1589475],[-74.8289843,39.1589813],[-74.8292295,39.1590373],[-74.8294285,39.1590947],[-74.8297013,39.1592086],[-74.8297868,39.1592691],[-74.8299118,39.1594442],[-74.8300951,39.1597449],[-74.8302489,39.1600014],[-74.8303962,39.1601999],[-74.8305176,39.1603432],[-74.8306165,39.1604465],[-74.8307163,39.1605374],[-74.8309792,39.1607171],[-74.8311384,39.1608155],[-74.8313839,39.1609951],[-74.8315282,39.1611139],[-74.8316493,39.1612437],[-74.8317151,39.1613351],[-74.8317735,39.1614324],[-74.8318094,39.1615224],[-74.8318499,39.1616088],[-74.8318553,39.1616189],[-74.831897,39.1616974],[-74.831946,39.1617844],[-74.8320477,39.1619572],[-74.8321529,39.1620892],[-74.8322682,39.1622262],[-74.8323379,39.1623089],[-74.8325519,39.162538],[-74.8327321,39.1627382],[-74.8328225,39.1628303],[-74.8328805,39.1628895],[-74.8330727,39.1630854],[-74.8332378,39.1632434],[-74.8333315,39.1633144],[-74.8335311,39.1634425],[-74.8338606,39.163619],[-74.8341114,39.1637418],[-74.8341163,39.1637441],[-74.8343426,39.1638509],[-74.8344793,39.1639174],[-74.8345139,39.1639422],[-74.8345542,39.163971],[-74.8346424,39.1640594],[-74.8346441,39.1640611],[-74.83474,39.1641566],[-74.8349212,39.1643574],[-74.8351183,39.164559],[-74.8352136,39.1646674],[-74.8352929,39.1647577],[-74.8353878,39.1648861],[-74.8354368,39.164979],[-74.8354785,39.1651083],[-74.835513,39.1652725],[-74.8355425,39.1653981],[-74.8355748,39.1655144],[-74.8356295,39.1656262],[-74.8356843,39.1657231],[-74.8357124,39.1657728],[-74.8357739,39.1658478],[-74.8358129,39.1658953],[-74.8359313,39.1660462],[-74.8359884,39.1661333],[-74.8360046,39.166158],[-74.8360637,39.166281],[-74.8360688,39.1662915],[-74.836116,39.1664164],[-74.8361831,39.1665784],[-74.8362569,39.1667759],[-74.8363286,39.1669313],[-74.8364105,39.1670655],[-74.8365196,39.1672338],[-74.836655,39.1674094],[-74.8368061,39.1675653],[-74.8369713,39.1677363],[-74.8369931,39.1677628],[-74.8370445,39.1678248],[-74.8371461,39.1679714],[-74.8372101,39.1680759],[-74.8372657,39.1681928],[-74.8373224,39.1683322],[-74.8373586,39.1684629],[-74.8373873,39.1686082],[-74.8374245,39.1687804],[-74.8374491,39.1688342],[-74.8374885,39.1688878],[-74.8375504,39.1689429],[-74.8375954,39.168982],[-74.8377058,39.1690239],[-74.8378423,39.1690467],[-74.8379376,39.169045],[-74.8379833,39.1690418],[-74.8380664,39.1690359],[-74.8382017,39.169013],[-74.8383529,39.1689893],[-74.8384761,39.1689831],[-74.8385733,39.168993],[-74.8386593,39.169016],[-74.8387091,39.1690394],[-74.8387885,39.1690767],[-74.8389383,39.1691548],[-74.8390348,39.1692177],[-74.8391397,39.1692756],[-74.8392576,39.1693262],[-74.8393755,39.1693694],[-74.8395438,39.1694155],[-74.8396243,39.1694501],[-74.8396805,39.1694936],[-74.8397866,39.1696147],[-74.8398318,39.1696945],[-74.8398658,39.1697758],[-74.8399057,39.1698993],[-74.8399321,39.1699632],[-74.8400349,39.1701701],[-74.8400915,39.170279],[-74.8401694,39.1703932],[-74.8402044,39.1704444],[-74.8403095,39.1705633],[-74.8403481,39.1705882],[-74.8403368,39.1706285],[-74.8403262,39.1706723],[-74.8403119,39.1707218],[-74.8403067,39.1707897],[-74.840307,39.1708533],[-74.8403109,39.1709027],[-74.840333,39.1709719],[-74.8403605,39.1710269],[-74.8404099,39.171096],[-74.840481,39.1711495],[-74.8405808,39.1711779],[-74.8406682,39.1712027],[-74.840888,39.1712274],[-74.8410949,39.171224],[-74.8413905,39.1711454],[-74.8414234,39.1714615],[-74.8414425,39.1715458],[-74.841447,39.1717173],[-74.8414365,39.1718511],[-74.8414058,39.1720708],[-74.8413954,39.1722366],[-74.8414152,39.1724691],[-74.8414461,39.1726813],[-74.8414656,39.1728587],[-74.8414685,39.1730578],[-74.8414318,39.1732004],[-74.8413799,39.1732995],[-74.8412944,39.1733811],[-74.841179,39.1734541],[-74.8409888,39.1735361],[-74.8407241,39.1736329],[-74.8405974,39.1737059],[-74.8404969,39.1737877],[-74.8404338,39.1738663],[-74.8403894,39.1739654],[-74.8403604,39.1741457],[-74.8403701,39.1742111],[-74.8404153,39.1742866],[-74.8404978,39.1743561],[-74.8406028,39.1744315],[-74.8407338,39.1744921],[-74.8409021,39.1745294],[-74.8410217,39.1745436],[-74.8411824,39.174549],[-74.8413766,39.1745281],[-74.8415371,39.1744956],[-74.8416827,39.1744777],[-74.8418489,39.1744758],[-74.8420022,39.1744928],[-74.8421668,39.1745388],[-74.8422866,39.1746024],[-74.8424291,39.1747184],[-74.8425643,39.1748546],[-74.8427295,39.1750112],[-74.8428682,39.1751212],[-74.8430688,39.1752704],[-74.8432336,39.1753514],[-74.8436455,39.175545],[-74.8439115,39.175707],[-74.8441927,39.1759098],[-74.844472,39.1761081],[-74.8446369,39.1762094],[-74.8449401,39.1763394],[-74.8451686,39.1764405],[-74.8455074,39.1765951],[-74.8455758,39.1766423],[-74.8457211,39.1767427],[-74.8457738,39.1768269],[-74.8458154,39.1769256],[-74.8458383,39.1770332],[-74.8458388,39.1771204],[-74.8458095,39.1772484],[-74.845739,39.1773417],[-74.8456534,39.1774059],[-74.8455193,39.1774877],[-74.8453833,39.1775827],[-74.8453655,39.1776013],[-74.845283,39.1776876],[-74.8451684,39.1779468],[-74.8450799,39.178171],[-74.8450507,39.1783106],[-74.8450199,39.1785128],[-74.8450318,39.1786553],[-74.8450773,39.1787889],[-74.8451217,39.1788603],[-74.8451639,39.1789282],[-74.8452765,39.1790326],[-74.8453964,39.1790991],[-74.8455946,39.179145],[-74.8457889,39.1791503],[-74.8459495,39.1791265],[-74.8462702,39.1790151],[-74.8465256,39.1788936],[-74.8468799,39.1787675],[-74.846911,39.1787619],[-74.8473353,39.1786848],[-74.8476938,39.1786517],[-74.8480394,39.1786667],[-74.8484171,39.1787266],[-74.8487912,39.1788273],[-74.8492513,39.1789393],[-74.8495449,39.1789893],[-74.8498812,39.1790086],[-74.849911,39.1790075],[-74.8502958,39.1789929],[-74.8507365,39.1789596],[-74.8512125,39.1788694],[-74.851466,39.178764],[-74.8516821,39.1786557],[-74.8518757,39.1785185],[-74.8520021,39.1783843],[-74.8521223,39.1781412],[-74.852185,39.1779694],[-74.8522365,39.1778093],[-74.8522877,39.1775852],[-74.8523353,39.1773873],[-74.8524131,39.1772708],[-74.852491,39.1771601],[-74.85261,39.1770492],[-74.8527329,39.1769732],[-74.8527918,39.1769522],[-74.8529175,39.1769072],[-74.8530267,39.1768767],[-74.8530854,39.1768602],[-74.8532437,39.1768489],[-74.8532983,39.176845],[-74.8535524,39.1768559],[-74.8537543,39.1768756],[-74.8540197,39.1769155],[-74.8542591,39.1769759],[-74.8544725,39.1770654],[-74.8548379,39.1772896],[-74.8550366,39.1774257],[-74.8551865,39.1775212],[-74.8553738,39.1776224],[-74.8555244,39.1776849],[-74.8556172,39.1777234],[-74.8558641,39.177775],[-74.8562003,39.1777827],[-74.8563927,39.1777603],[-74.856497,39.1777018],[-74.8566422,39.1776142],[-74.8567687,39.1775004],[-74.8568651,39.1773634],[-74.8569576,39.1771799],[-74.8570401,39.1768845],[-74.8570392,39.1766926],[-74.8569858,39.1764746],[-74.856914,39.176312],[-74.8567898,39.176135],[-74.8566507,39.1759552],[-74.8565452,39.1757839],[-74.8563547,39.1754283],[-74.8563239,39.1752452],[-74.8563196,39.1751318],[-74.8563303,39.1750271],[-74.8563708,39.1749222],[-74.8564264,39.1748378],[-74.856553,39.1747414],[-74.8567543,39.1746506],[-74.8572787,39.1745574],[-74.857723,39.1744979],[-74.8581597,39.1744268],[-74.8586487,39.1743468],[-74.859162,39.1742769],[-74.8594832,39.1742468],[-74.8597297,39.1742431],[-74.8600473,39.1742509],[-74.8603164,39.1742733],[-74.8606062,39.1743262],[-74.8609993,39.1744286],[-74.8610476,39.1744412],[-74.8614183,39.1745912],[-74.8618228,39.1747877],[-74.8618695,39.1748177],[-74.862177,39.1750149],[-74.8624129,39.1751275],[-74.8626188,39.1752054],[-74.8628208,39.1752484],[-74.8629964,39.1752653],[-74.8632541,39.1752499],[-74.8634948,39.175178],[-74.8637332,39.1750493],[-74.8638595,39.174918],[-74.8639597,39.1747839],[-74.8641374,39.174478],[-74.8642449,39.1743091],[-74.864334,39.1742041],[-74.8645106,39.1740392],[-74.8646067,39.1739794],[-74.8647452,39.1738931],[-74.8650697,39.1737874],[-74.8654541,39.173699],[-74.8660792,39.1735763],[-74.8662769,39.1735117],[-74.8664407,39.1734182],[-74.8666307,39.1732954],[-74.8669285,39.1731026],[-74.867191,39.1729258],[-74.8676639,39.1726364],[-74.8681555,39.1723441],[-74.8684627,39.1721468],[-74.8687083,39.1719629],[-74.8690727,39.1716418],[-74.8692922,39.1714579],[-74.8695508,39.1712608],[-74.8698411,39.171068],[-74.8699902,39.1709919],[-74.8702141,39.1709447],[-74.870412,39.1709353],[-74.8706923,39.1709635],[-74.8708337,39.1710096],[-74.8709131,39.1710355],[-74.8712837,39.171171],[-74.8717088,39.1713863],[-74.8719862,39.1715541],[-74.8720957,39.1716346],[-74.8722224,39.1717278],[-74.8724026,39.1718959],[-74.8725763,39.1721458],[-74.8726021,39.1721831],[-74.8726877,39.1724722],[-74.8727415,39.172757],[-74.8727908,39.1728935],[-74.8728438,39.17303],[-74.8729172,39.1731214],[-74.8730709,39.1732168],[-74.8732356,39.1732948],[-74.8735313,39.1733957],[-74.8738606,39.1734954],[-74.8744235,39.1736793],[-74.8747661,39.1737958],[-74.8750016,39.1738881],[-74.875496,39.1740785],[-74.8758568,39.1741835],[-74.8762268,39.1742201],[-74.8765329,39.1742192],[-74.8765676,39.174219],[-74.876869,39.1741574],[-74.8770923,39.1740507],[-74.8773105,39.1738908],[-74.8775527,39.1736779],[-74.8776051,39.1736246],[-74.8778819,39.1733434],[-74.8782027,39.1730299],[-74.8783564,39.1728797],[-74.8787148,39.1725603],[-74.879229,39.1722328],[-74.8796369,39.1720648],[-74.8800841,39.1719497],[-74.8804147,39.171888],[-74.8809108,39.1718258],[-74.8815678,39.1718084],[-74.8816537,39.1718058],[-74.882687,39.1717745],[-74.8834547,39.1717495],[-74.8834656,39.1717492],[-74.8843905,39.1717764],[-74.8848495,39.1718353],[-74.8850237,39.1718577],[-74.8856592,39.172],[-74.885896,39.172067],[-74.886062,39.1721649],[-74.8863162,39.1723535],[-74.8864981,39.172514],[-74.8865216,39.1725347],[-74.8867173,39.1727159],[-74.8870105,39.1729422],[-74.8873228,39.1730927],[-74.8877125,39.1731444],[-74.8880825,39.1731508],[-74.8884811,39.1730661],[-74.8887676,39.1729515],[-74.8890586,39.1727611],[-74.8893006,39.1725178],[-74.8895327,39.1722519],[-74.8896773,39.1719786],[-74.8897342,39.1717057],[-74.8897424,39.1714253],[-74.8897015,39.1710845],[-74.8895635,39.1707591],[-74.8893766,39.1704112],[-74.8891902,39.1701466],[-74.8889354,39.1698368],[-74.888739,39.1695192],[-74.8886353,39.1692544],[-74.8886146,39.1690271],[-74.8886231,39.1688074],[-74.8886609,39.1685875],[-74.8888349,39.1683748],[-74.8888651,39.1683459],[-74.8890576,39.1681619],[-74.8895014,39.16788],[-74.8898406,39.1676326],[-74.8901891,39.1672867],[-74.8904357,39.1669942],[-74.8907156,39.1665576],[-74.8909282,39.1662841],[-74.89116,39.166082],[-74.8928866,39.1652468],[-74.8930646,39.1652198],[-74.8941697,39.1667404],[-74.894185,39.1667618],[-74.8941927,39.1667853],[-74.8941957,39.1668261],[-74.894189,39.1668615],[-74.8941726,39.1668851],[-74.8941547,39.1668927],[-74.8941285,39.1668928],[-74.8940995,39.1668811],[-74.8940802,39.1668672],[-74.8940415,39.1668588],[-74.8940195,39.1668589],[-74.8939989,39.1668675],[-74.8939934,39.1668782],[-74.8939894,39.1668997],[-74.8939895,39.166919],[-74.893991,39.1669372],[-74.893998,39.1669619],[-74.8940147,39.1669918],[-74.8940272,39.1670122],[-74.8940563,39.1670378],[-74.8940895,39.1670549],[-74.8941233,39.1670601],[-74.8941728,39.1670578],[-74.894243,39.1670479],[-74.8943366,39.1670315],[-74.8943807,39.167026],[-74.8944193,39.1670259],[-74.8944607,39.1670386],[-74.8944938,39.1670578],[-74.8945174,39.1670749],[-74.8945258,39.1671038],[-74.8945275,39.1671606],[-74.8945252,39.1672379],[-74.8945254,39.1672754],[-74.8945214,39.1673022],[-74.8945189,39.1673451],[-74.8945235,39.1674384],[-74.8945223,39.1674717],[-74.8945266,39.167492],[-74.8945308,39.1675102],[-74.8945336,39.167522],[-74.8945323,39.1675381],[-74.8945297,39.1675499],[-74.8945235,39.1675532],[-74.8945152,39.1675586],[-74.8944973,39.1675586],[-74.8944808,39.1675587],[-74.8944657,39.167563],[-74.8944616,39.1675705],[-74.8944589,39.1675834],[-74.8944658,39.1675941],[-74.8944756,39.1676059],[-74.8944867,39.1676219],[-74.8944855,39.1676573],[-74.8944857,39.1676916],[-74.8944885,39.1677067],[-74.8944996,39.1677195],[-74.8945272,39.1677312],[-74.8945438,39.1677365],[-74.894559,39.1677472],[-74.894566,39.1677589],[-74.894566,39.1677697],[-74.8945654,39.1677793],[-74.8945669,39.1678061],[-74.894567,39.1678287],[-74.8945754,39.1678415],[-74.8945892,39.1678532],[-74.894621,39.1678671],[-74.8946513,39.1678734],[-74.8946831,39.1678872],[-74.8947011,39.167899],[-74.8947247,39.1679321],[-74.8947303,39.1679579],[-74.8947305,39.1679922],[-74.8947197,39.1680222],[-74.8947129,39.1680459],[-74.894713,39.168063],[-74.8947213,39.1680727],[-74.8947324,39.1680801],[-74.8947627,39.1680864],[-74.8947972,39.1680885],[-74.8948261,39.1680895],[-74.8948558,39.1680947],[-74.8948793,39.1681086],[-74.8948973,39.16813],[-74.8949004,39.1681846],[-74.8949046,39.1681975],[-74.894917,39.168206],[-74.8949308,39.1682135],[-74.8949557,39.1682209],[-74.8949806,39.1682369],[-74.8949958,39.1682508],[-74.8950069,39.1682679],[-74.8950083,39.1682854],[-74.8950049,39.1682989],[-74.8949919,39.1683508],[-74.8949935,39.1683968],[-74.895006,39.1684202],[-74.895024,39.1684352],[-74.8950618,39.1684461],[-74.8950782,39.1684468],[-74.8950933,39.1684468],[-74.8951085,39.1684499],[-74.8951292,39.1684595],[-74.8951728,39.1684969],[-74.8951826,39.1685151],[-74.8951869,39.168544],[-74.895205,39.168574],[-74.8952368,39.1686028],[-74.895252,39.1686135],[-74.8952672,39.1686178],[-74.8953045,39.1686337],[-74.8953376,39.1686508],[-74.8953487,39.1686604],[-74.8953557,39.1686786],[-74.8953668,39.1686893],[-74.8953833,39.1686935],[-74.8953971,39.1686935],[-74.8954178,39.1686966],[-74.895433,39.1687008],[-74.8954402,39.1687095],[-74.8954441,39.1687244],[-74.8954442,39.1687437],[-74.8954412,39.1688166],[-74.895451,39.1688381],[-74.8954649,39.1688573],[-74.895487,39.1688755],[-74.8955188,39.1688947],[-74.8955534,39.1689267],[-74.8955686,39.1689363],[-74.8955935,39.1689459],[-74.8956004,39.1689544],[-74.8956046,39.168963],[-74.895606,39.1689737],[-74.8956048,39.1689973],[-74.8955997,39.1690649],[-74.8955999,39.169111],[-74.8956042,39.1691325],[-74.8956194,39.1691496],[-74.8956347,39.1691699],[-74.8956445,39.169201],[-74.895642,39.1692439],[-74.8956422,39.1692868],[-74.8956396,39.1693114],[-74.8956397,39.1693307],[-74.895644,39.1693522],[-74.8956601,39.1693929],[-74.8959092,39.169599],[-74.8959396,39.1696086],[-74.8959838,39.1696309],[-74.8960155,39.1696437],[-74.8960487,39.1696575],[-74.8960694,39.1696746],[-74.8960855,39.1697089],[-74.8960897,39.1697271],[-74.8961022,39.1697431],[-74.8961313,39.1697677],[-74.8961687,39.1698073],[-74.8961894,39.1698222],[-74.8962171,39.1698361],[-74.8962323,39.1698457],[-74.8962379,39.1698628],[-74.896238,39.1698778],[-74.8962312,39.1698971],[-74.8962237,39.1699122],[-74.8962224,39.1699283],[-74.8962225,39.1699476],[-74.8962241,39.1699733],[-74.8962367,39.1700108],[-74.8962506,39.1700311],[-74.8962796,39.1700578],[-74.8963391,39.1700909],[-74.8963861,39.1701197],[-74.8964123,39.1701378],[-74.8964207,39.1701496],[-74.8964235,39.1701625],[-74.8964236,39.1701753],[-74.8964346,39.170191],[-74.8964497,39.1702006],[-74.8964665,39.1702106],[-74.8964907,39.1702244],[-74.8965211,39.1702415],[-74.8965625,39.1702574],[-74.8965928,39.1702638],[-74.89663,39.1702636],[-74.8966603,39.1702614],[-74.8966851,39.1702549],[-74.896714,39.1702473],[-74.8967374,39.1702461],[-74.8967567,39.1702503],[-74.8967816,39.170262],[-74.896801,39.1702759],[-74.8968148,39.170293],[-74.8968163,39.1703059],[-74.8968095,39.1703199],[-74.8968017,39.1703311],[-74.8968017,39.1703373],[-74.8968073,39.170349],[-74.8968135,39.1703592],[-74.896828,39.1703725],[-74.8968487,39.1703938],[-74.8969213,39.1704759],[-74.8969811,39.170551],[-74.8969943,39.1705702],[-74.8970019,39.1705851],[-74.8970109,39.1705974],[-74.8970219,39.1706038],[-74.8970384,39.170608],[-74.8970577,39.1706085],[-74.897081,39.1706063],[-74.8971022,39.1706008],[-74.8971372,39.1705954],[-74.8971695,39.1705953],[-74.8971894,39.1705973],[-74.8972094,39.1706021],[-74.8972146,39.1706037],[-74.8972175,39.1706038],[-74.8972348,39.1706047],[-74.8972502,39.1706003],[-74.8972578,39.1705976],[-74.8972722,39.1705981],[-74.8972963,39.170605],[-74.89731,39.1706098],[-74.8973197,39.1706204],[-74.8973301,39.1706391],[-74.8973343,39.1706605],[-74.8973413,39.1706765],[-74.8973448,39.1706839],[-74.8973469,39.1706946],[-74.8973463,39.1707053],[-74.8973463,39.1707128],[-74.8973546,39.1707245],[-74.8973584,39.170729],[-74.8973587,39.1707293],[-74.8973698,39.1707341],[-74.8973828,39.1707373],[-74.8973973,39.1707441],[-74.8974063,39.1707511],[-74.8974194,39.1707649],[-74.8974263,39.1707767],[-74.8974326,39.1707879],[-74.8974381,39.1707937],[-74.897447,39.1707985],[-74.8974587,39.1708001],[-74.8974848,39.1708048],[-74.8975,39.170809],[-74.8975124,39.1708159],[-74.8975234,39.170825],[-74.8975365,39.1708308],[-74.8975564,39.1708404],[-74.8975654,39.1708478],[-74.8975696,39.170859],[-74.8975672,39.1708924],[-74.8975719,39.1709114],[-74.8975803,39.170921],[-74.8975927,39.1709253],[-74.8976106,39.1709263],[-74.8976382,39.1709283],[-74.8976575,39.1709347],[-74.8976672,39.1709454],[-74.8976659,39.1709604],[-74.8976632,39.1709755],[-74.897666,39.170984],[-74.8976771,39.1709851],[-74.8976936,39.1709829],[-74.8977115,39.1709764],[-74.8977321,39.1709709],[-74.8977514,39.1709709],[-74.8977652,39.1709762],[-74.8977701,39.1709837],[-74.8977757,39.1710051],[-74.8977774,39.1710555],[-74.8977802,39.1710716],[-74.8977927,39.1710973],[-74.8978094,39.1711219],[-74.8978136,39.1711358],[-74.897818,39.1711808],[-74.8978168,39.1712044],[-74.8978237,39.1712108],[-74.8978319,39.1712076],[-74.897836,39.171199],[-74.8978387,39.1711818],[-74.8978413,39.1711647],[-74.8978481,39.1711411],[-74.8978673,39.1711281],[-74.8978824,39.1711173],[-74.8979057,39.1710915],[-74.8979317,39.1710678],[-74.8979496,39.1710624],[-74.897962,39.1710656],[-74.8979704,39.1710752],[-74.8979718,39.1710902],[-74.8979706,39.1711138],[-74.8979679,39.1711299],[-74.897968,39.1711439],[-74.8979763,39.1711524],[-74.8979956,39.1711609],[-74.8980136,39.1711748],[-74.8980296,39.1711908],[-74.8980435,39.1712165],[-74.8980601,39.1712379],[-74.8980768,39.1712593],[-74.8980838,39.1712754],[-74.8981188,39.1713825],[-74.8981415,39.1714897],[-74.8981458,39.1715283],[-74.8981555,39.1715432],[-74.8981721,39.1715518],[-74.8981956,39.171556],[-74.8982107,39.1715581],[-74.8982287,39.1715644],[-74.8982384,39.1715773],[-74.8982495,39.1715933],[-74.8982592,39.1716029],[-74.8982772,39.1716125],[-74.8983007,39.171621],[-74.8983179,39.1716338],[-74.8983442,39.171652],[-74.8983512,39.1716713],[-74.8983541,39.1716927],[-74.898357,39.1717099],[-74.8983791,39.1717259],[-74.8984178,39.1717493],[-74.8984399,39.1717675],[-74.8984648,39.1717749],[-74.8984828,39.1717856],[-74.8985008,39.171808],[-74.8985188,39.1718294],[-74.8985396,39.1718487],[-74.8985714,39.1718657],[-74.8985977,39.1718849],[-74.8986302,39.1719159],[-74.8986482,39.1719298],[-74.8986703,39.1719404],[-74.898691,39.1719414],[-74.8987131,39.1719435],[-74.8987393,39.1719595],[-74.8987504,39.1719766],[-74.8987505,39.1719991],[-74.898741,39.1720206],[-74.898726,39.1720368],[-74.8987026,39.1720508],[-74.8986793,39.1720573],[-74.8986627,39.1720595],[-74.8986517,39.1720617],[-74.8986352,39.1720714],[-74.8986326,39.1720886],[-74.8986341,39.1721057],[-74.8986369,39.1721218],[-74.8986494,39.1721411],[-74.8986605,39.1721614],[-74.8986634,39.1721828],[-74.8986718,39.1722],[-74.8986884,39.1722063],[-74.8987063,39.1722074],[-74.8987228,39.1722073],[-74.8987421,39.1722094],[-74.8987739,39.1722232],[-74.8987939,39.1722349],[-74.8988367,39.1722552],[-74.8988727,39.1722743],[-74.8988948,39.1722893],[-74.8989073,39.1723128],[-74.8989116,39.1723343],[-74.898909,39.1723622],[-74.8988981,39.172389],[-74.8988859,39.1724159],[-74.898886,39.1724395],[-74.8988916,39.1724577],[-74.8989041,39.1724759],[-74.8989263,39.1724983],[-74.8989401,39.1725101],[-74.8989458,39.1725315],[-74.8989459,39.1725487],[-74.8989432,39.1725615],[-74.8989295,39.1725777],[-74.8989131,39.1725949],[-74.8988863,39.1726089],[-74.898845,39.1726251],[-74.8988148,39.1726435],[-74.8987929,39.1726639],[-74.8987902,39.1726779],[-74.8987903,39.1726875],[-74.8988028,39.1727036],[-74.898825,39.1727303],[-74.8988499,39.1727581],[-74.8988833,39.1728095],[-74.8989068,39.1728298],[-74.8989496,39.1728425],[-74.8989896,39.1728445],[-74.8989992,39.1728477],[-74.8990269,39.1728605],[-74.9015712,39.1747686],[-74.9016724,39.1748467],[-74.9018716,39.175018],[-74.9019565,39.175086],[-74.902038,39.1751262],[-74.9021421,39.1751587],[-74.9022723,39.1751886],[-74.9023961,39.1752388],[-74.9024938,39.1752815],[-74.9025533,39.1753116],[-74.9026022,39.1753317],[-74.9027886,39.1753955],[-74.9028683,39.175418],[-74.9029237,39.1754406],[-74.9029449,39.1754519],[-74.902958,39.1754658],[-74.902976,39.1754961],[-74.9029924,39.1755251],[-74.9030104,39.1755453],[-74.9030333,39.1755604],[-74.903061,39.1755755],[-74.9031179,39.1755904],[-74.9031603,39.1756067],[-74.9031929,39.1756256],[-74.9032223,39.1756495],[-74.903317,39.1757301],[-74.9035054,39.1758661],[-74.9036164,39.1759568],[-74.9037225,39.1760323],[-74.9038122,39.1760889],[-74.9039035,39.176148],[-74.9040201,39.1762096],[-74.9040885,39.1762422],[-74.9042579,39.1763074],[-74.9043295,39.1763325],[-74.9043946,39.1763499],[-74.9044646,39.1763725],[-74.9046576,39.1764489],[-74.9048091,39.1765142],[-74.9048694,39.1765431],[-74.9049313,39.176577],[-74.904977,39.1766135],[-74.9050211,39.1766399],[-74.9050699,39.1766587],[-74.9051912,39.1766975],[-74.9052368,39.1767163],[-74.9052743,39.1767428],[-74.9053462,39.1768133],[-74.9053969,39.1768701],[-74.9054199,39.1769067],[-74.9054347,39.176937],[-74.9054608,39.1769647],[-74.9054967,39.1769899],[-74.905531,39.1770087],[-74.9055798,39.1770301],[-74.9056205,39.17704],[-74.9056546,39.1770387],[-74.9056806,39.177036],[-74.9057585,39.1770219],[-74.9058511,39.1770038],[-74.9059551,39.1770022],[-74.9059762,39.1770021],[-74.9059843,39.1770109],[-74.9059958,39.1770286],[-74.906004,39.1770425],[-74.9060203,39.1770526],[-74.9060431,39.1770537],[-74.9060594,39.1770568],[-74.9060869,39.17704],[-74.906099,39.1770161],[-74.9061171,39.1769707],[-74.9061386,39.1769659],[-74.9061508,39.1769706],[-74.9061601,39.1769873],[-74.9061603,39.1770088],[-74.906142,39.1770375],[-74.9060995,39.1771044],[-74.9060752,39.1771522],[-74.9060694,39.1772071],[-74.9060636,39.1772572],[-74.9060364,39.1773218],[-74.9060215,39.1774053],[-74.906022,39.1774912],[-74.9060253,39.1775342],[-74.9060533,39.1775985],[-74.9061829,39.1777508],[-74.9062845,39.1778196],[-74.9063675,39.1778575],[-74.9064657,39.177881],[-74.9065454,39.1778783],[-74.906671,39.1778684],[-74.9067751,39.1778465],[-74.9068846,39.1778211],[-74.9069719,39.1778112],[-74.9070178,39.177792],[-74.9070575,39.1777704],[-74.9071109,39.1777153],[-74.9071611,39.1776567],[-74.9072036,39.1775849],[-74.9072171,39.1775419],[-74.9072216,39.1775133],[-74.9072336,39.1774775],[-74.9072511,39.1774428],[-74.9072692,39.1774022],[-74.907278,39.1773365],[-74.9073095,39.177204],[-74.9073215,39.1771681],[-74.9073413,39.1771466],[-74.9073673,39.1771382],[-74.9073842,39.1771405],[-74.907395,39.1771524],[-74.9073936,39.1771715],[-74.907386,39.1771918],[-74.9073786,39.1772264],[-74.9073803,39.1772526],[-74.9073834,39.1772693],[-74.9073911,39.1772789],[-74.9074081,39.1772895],[-74.9074234,39.1772943],[-74.9074641,39.1773013],[-74.9075178,39.1773071],[-74.9075469,39.1773046],[-74.9075575,39.1772974],[-74.9075575,39.1772878],[-74.9075513,39.1772759],[-74.9075359,39.1772605],[-74.9075266,39.177239],[-74.9075248,39.177202],[-74.9075339,39.1771817],[-74.9075523,39.1771745],[-74.9075737,39.1771744],[-74.9076013,39.1771815],[-74.907632,39.1771897],[-74.9076566,39.1771896],[-74.9076795,39.1771824],[-74.9076948,39.1771716],[-74.9077039,39.1771561],[-74.9077176,39.1771417],[-74.9077436,39.1771345],[-74.9077758,39.1771355],[-74.9078081,39.1771462],[-74.9078388,39.1771651],[-74.9078697,39.1771949],[-74.9079269,39.1772865],[-74.9079701,39.1773424],[-74.9079964,39.177365],[-74.9080379,39.1773887],[-74.9080932,39.1774124],[-74.9081639,39.1774563],[-74.9082101,39.1774836],[-74.9082878,39.1775406],[-74.908334,39.1775702],[-74.9083755,39.1775963],[-74.9084309,39.1776236],[-74.9084923,39.1776413],[-74.9085491,39.1776578],[-74.9085737,39.177666],[-74.9086021,39.1776826],[-74.9086637,39.1777254],[-74.9087098,39.1777491],[-74.9087743,39.1777691],[-74.9088709,39.1777807],[-74.9089614,39.177784],[-74.9090043,39.1777838],[-74.9090349,39.177779],[-74.9090701,39.1777657],[-74.9091099,39.1777489],[-74.9091734,39.1777343],[-74.9092193,39.1777234],[-74.90925,39.1777197],[-74.9093281,39.1777147],[-74.9093986,39.1777061],[-74.9094705,39.1776903],[-74.9095517,39.1776805],[-74.9096023,39.1776803],[-74.9096345,39.1776826],[-74.9096483,39.1776945],[-74.9096484,39.177704],[-74.9096347,39.1777196],[-74.909598,39.1777412],[-74.9095537,39.177764],[-74.9094956,39.1777893],[-74.909462,39.1778156],[-74.9094499,39.1778443],[-74.9094501,39.177867],[-74.9094532,39.1778861],[-74.9094625,39.1778979],[-74.9094779,39.1779086],[-74.9094902,39.1779193],[-74.9094949,39.1779324],[-74.9094919,39.1779527],[-74.9094829,39.1779838],[-74.9094785,39.1780053],[-74.9094862,39.1780172],[-74.909497,39.1780243],[-74.9095292,39.1780313],[-74.9095553,39.1780384],[-74.909586,39.1780526],[-74.9096061,39.1780681],[-74.9096331,39.1781026],[-74.9096624,39.1781287],[-74.9096854,39.1781406],[-74.9097054,39.1781464],[-74.9097284,39.1781464],[-74.909756,39.1781451],[-74.9097759,39.1781438],[-74.909874,39.1781482],[-74.9099492,39.1781575],[-74.9099829,39.178161],[-74.910035,39.1781632],[-74.9100795,39.1781594],[-74.9101162,39.1781474],[-74.9101452,39.1781353],[-74.9101651,39.1781198],[-74.9101902,39.1780934],[-74.9101963,39.1780791],[-74.9101962,39.1780612],[-74.9101945,39.1780445],[-74.9101867,39.1780231],[-74.9101866,39.1780052],[-74.9101927,39.1779896],[-74.9102156,39.17798],[-74.9102386,39.177974],[-74.9102662,39.1779727],[-74.9103167,39.1779725],[-74.9103566,39.1779688],[-74.9103949,39.1779627],[-74.9104347,39.1779566],[-74.9104622,39.1779529],[-74.9105113,39.1779551],[-74.9105711,39.1779656],[-74.9106172,39.177975],[-74.9106541,39.177994],[-74.9106772,39.1780118],[-74.9106941,39.1780272],[-74.910708,39.1780332],[-74.9107417,39.1780402],[-74.9107601,39.1780401],[-74.9107908,39.1780472],[-74.9108116,39.178059],[-74.9108423,39.1780673],[-74.9108699,39.1780684],[-74.9109174,39.1780706],[-74.9109435,39.1780789],[-74.9109682,39.1780979],[-74.9110035,39.178118],[-74.9110327,39.1781275],[-74.9110526,39.1781274],[-74.9110695,39.1781214],[-74.9110863,39.1781106],[-74.9111031,39.1781045],[-74.9111215,39.1781116],[-74.9122237,39.1784884],[-74.9122321,39.178539],[-74.9123096,39.1787505],[-74.9123705,39.1789367],[-74.9124473,39.1790527],[-74.9125133,39.1791523],[-74.9128338,39.1794902],[-74.912949,39.179655],[-74.9130316,39.1798115],[-74.913064,39.1799171],[-74.9130705,39.1799385],[-74.9130767,39.1800782],[-74.9130774,39.1801969],[-74.9130673,39.180324],[-74.9130137,39.1804641],[-74.9128839,39.1806086],[-74.9127298,39.1807955],[-74.9126814,39.1808974],[-74.9126711,39.1810034],[-74.912688,39.1810881],[-74.9127375,39.1811769],[-74.9128415,39.1812697],[-74.9131089,39.1813832],[-74.9134879,39.1815005],[-74.9136571,39.1815719],[-74.913859,39.1816517],[-74.9140559,39.181795],[-74.9141709,39.1819133],[-74.9142423,39.1820274],[-74.9142954,39.1822645],[-74.9143125,39.1823873],[-74.9143295,39.1825101],[-74.914363,39.1826456],[-74.9144235,39.1827555],[-74.9145058,39.1828569],[-74.9145607,39.1829415],[-74.914855,39.1834531],[-74.9149763,39.1837196],[-74.9151413,39.1840071],[-74.9152622,39.1841847],[-74.9153774,39.1843453],[-74.9155527,39.1845269],[-74.9156956,39.1847467],[-74.9157782,39.1849031],[-74.9158146,39.185081],[-74.915807,39.1851771],[-74.9158045,39.1852081],[-74.9156859,39.1854246],[-74.9155453,39.1855776],[-74.9154372,39.1857052],[-74.9153888,39.185807],[-74.9153728,39.1858817],[-74.915357,39.1859554],[-74.9153416,39.1861123],[-74.9153264,39.1863115],[-74.9152622,39.1865024],[-74.9151438,39.1867358],[-74.9150198,39.1869354],[-74.9148737,39.1871054],[-74.9146081,39.1873012],[-74.9141871,39.1875118],[-74.9139555,39.1875931],[-74.9137976,39.1876725],[-74.913703,39.1877467],[-74.9136402,39.1878406],[-74.9136092,39.1879492],[-74.9136036,39.1880774],[-74.9136358,39.188161],[-74.913725,39.1882642],[-74.9138268,39.188328],[-74.9139601,39.1883719],[-74.9140114,39.1883794],[-74.9141249,39.1883959],[-74.9143592,39.1883852],[-74.9145934,39.1883696],[-74.914834,39.1883392],[-74.9150112,39.1883139],[-74.9151441,39.1883036],[-74.9153088,39.1882931],[-74.9154989,39.1883023],[-74.9156637,39.1883313],[-74.9158542,39.1884045],[-74.9160765,39.1885122],[-74.9163242,39.1886296],[-74.9165401,39.1887225],[-74.9166987,39.1887614],[-74.9168636,39.1887904],[-74.9169966,39.1887948],[-74.9170851,39.1887699],[-74.9171673,39.1887351],[-74.9173884,39.1886307],[-74.9175587,39.1885168],[-74.9176975,39.1884177],[-74.9177921,39.1883582],[-74.9178932,39.1883085],[-74.9180513,39.1882636],[-74.9181842,39.1882385],[-74.9183235,39.188238],[-74.9185011,39.1882866],[-74.9188694,39.1884283],[-74.9191868,39.1885503],[-74.9194217,39.1886284],[-74.9195614,39.1887018],[-74.9196951,39.1888196],[-74.9198994,39.1890752],[-74.9200143,39.1892227],[-74.9201735,39.1893749],[-74.920269,39.1894436],[-74.9203704,39.1894679],[-74.9205162,39.1894772],[-74.9206174,39.1894571],[-74.9206933,39.1894273],[-74.9207374,39.1893975],[-74.9207688,39.189353],[-74.9207727,39.1893432],[-74.9207938,39.1892889],[-74.920806,39.1892051],[-74.9207799,39.1890868],[-74.9207285,39.1889588],[-74.9206069,39.1887621],[-74.9205299,39.1885899],[-74.9205037,39.1884421],[-74.9204965,39.1883041],[-74.9205212,39.1882005],[-74.9205651,39.1881215],[-74.9206218,39.188072],[-74.920685,39.1880422],[-74.9207989,39.188022],[-74.920932,39.1880363],[-74.9210335,39.1880705],[-74.9211225,39.1881195],[-74.9212435,39.1882225],[-74.9213773,39.1883502],[-74.9214918,39.1884336],[-74.9215997,39.1884825],[-74.921752,39.1885214],[-74.9219929,39.1885501],[-74.9222008,39.1885787],[-74.9222021,39.1885789],[-74.9223606,39.1886128],[-74.9224496,39.1886569],[-74.9225005,39.188701],[-74.9225325,39.1887502],[-74.922544,39.1888677],[-74.922546,39.1888882],[-74.9225215,39.1890362],[-74.9224403,39.1892238],[-74.9223841,39.1893571],[-74.922372,39.1894508],[-74.9223664,39.189574],[-74.9224055,39.1897661],[-74.92247,39.1899581],[-74.9225026,39.190101],[-74.9225165,39.1903227],[-74.9225311,39.1904542],[-74.9225367,39.190505],[-74.9225434,39.1905741],[-74.9225946,39.1906577],[-74.9226838,39.1907461],[-74.9228429,39.1908737],[-74.9229447,39.1909521],[-74.9229909,39.1909922],[-74.9230466,39.1910405],[-74.9230914,39.1911093],[-74.923111,39.1912177],[-74.9230988,39.1913016],[-74.923055,39.1913757],[-74.9229983,39.1914301],[-74.9229289,39.1914747],[-74.922834,39.1914997],[-74.9226632,39.1915348],[-74.9225429,39.191555],[-74.9224291,39.1915899],[-74.9223155,39.1916544],[-74.9222399,39.1917237],[-74.9221394,39.1918621],[-74.9220896,39.1920052],[-74.922046,39.1921385],[-74.9220086,39.1922372],[-74.9219331,39.1923262],[-74.9218511,39.1923856],[-74.9217563,39.1924205],[-74.921655,39.1924307],[-74.9214839,39.1924215],[-74.9213063,39.1923827],[-74.9211604,39.1923536],[-74.92104,39.1923294],[-74.9208562,39.1923153],[-74.9207169,39.1923207],[-74.920622,39.1923408],[-74.9205209,39.1923904],[-74.9204516,39.1924548],[-74.9204015,39.1925585],[-74.9203019,39.1928496],[-74.9202084,39.1930965],[-74.9201946,39.1931249],[-74.920127,39.1932643],[-74.9200201,39.1934027],[-74.9199068,39.1935067],[-74.919787,39.1936057],[-74.919604,39.1937197],[-74.9193767,39.1938536],[-74.9191683,39.1939678],[-74.9190358,39.194057],[-74.9188782,39.1941808],[-74.9187397,39.1943292],[-74.918639,39.1944429],[-74.9185762,39.1945368],[-74.9185263,39.1946553],[-74.9185017,39.1947786],[-74.918496,39.194887],[-74.918522,39.1950102],[-74.9185799,39.1951628],[-74.9186822,39.1953152],[-74.918848,39.195497],[-74.9190646,39.1956983],[-74.9192112,39.1958457],[-74.9193452,39.1960128],[-74.9194283,39.1961357],[-74.9194575,39.1961765],[-74.9195305,39.1962783],[-74.9196133,39.1963618],[-74.9197597,39.1964697],[-74.9197639,39.1964718],[-74.919963,39.1965676],[-74.9201788,39.1966358],[-74.9203817,39.1966696],[-74.9205147,39.1966691],[-74.9206857,39.1966537],[-74.9208565,39.1966186],[-74.9209512,39.196564],[-74.9210774,39.1964748],[-74.9213043,39.1962768],[-74.9214996,39.1960987],[-74.9216571,39.1959601],[-74.9217897,39.1958857],[-74.9219667,39.1958308],[-74.9221377,39.1958105],[-74.9223467,39.1958048],[-74.9226318,39.1958087],[-74.9228282,39.195808],[-74.9230055,39.1957925],[-74.9231384,39.1957822],[-74.9233346,39.195742],[-74.9235369,39.1956772],[-74.9236506,39.1956275],[-74.9238148,39.1955382],[-74.9240042,39.1954389],[-74.9241809,39.19532],[-74.9243704,39.1952306],[-74.9245284,39.1951708],[-74.9246739,39.1951407],[-74.9248234,39.1951353],[-74.9248259,39.1951352],[-74.9250097,39.1951494],[-74.9250922,39.1951737],[-74.9252067,39.1952423],[-74.9252767,39.1953061],[-74.9253343,39.1953996],[-74.9253475,39.1954981],[-74.9253422,39.1956608],[-74.925332,39.1957027],[-74.9253051,39.1958137],[-74.92523,39.1959668],[-74.9252054,39.1960803],[-74.9252122,39.1961542],[-74.9252379,39.1962182],[-74.9253145,39.1963214],[-74.9254164,39.1964098],[-74.9255563,39.1965029],[-74.925709,39.1966108],[-74.925849,39.1967138],[-74.9259382,39.1967874],[-74.9260021,39.1968809],[-74.9260406,39.1969744],[-74.9260541,39.1971025],[-74.9260359,39.1972406],[-74.9259734,39.1973887],[-74.9258671,39.1976158],[-74.925723,39.1978727],[-74.9256795,39.1979866],[-74.9256419,39.1980849],[-74.9255672,39.1983021],[-74.925562,39.1984944],[-74.9255712,39.1990773],[-74.9255723,39.199145],[-74.9255944,39.1996674],[-74.925642,39.2002095],[-74.9257084,39.2007071],[-74.9257544,39.200983],[-74.9257744,39.2011456],[-74.925775,39.2012491],[-74.9257501,39.2013133],[-74.9257189,39.2013923],[-74.9256623,39.2014615],[-74.9255867,39.2015307],[-74.9254225,39.2016201],[-74.9251885,39.2017327],[-74.925113,39.2017691],[-74.9250119,39.2018286],[-74.9248668,39.2019277],[-74.9247535,39.2020415],[-74.9246528,39.2021553],[-74.9245589,39.2023736],[-74.9246646,39.2024551],[-74.924844,39.2025894],[-74.9249439,39.2026605],[-74.9250848,39.2027632],[-74.9252001,39.2028421],[-74.9253206,39.2029508],[-74.9253927,39.2030677],[-74.9254213,39.203149],[-74.9254421,39.2032104],[-74.9254553,39.2032878],[-74.9254532,39.2033691],[-74.9254458,39.2034148],[-74.9254182,39.2034824],[-74.9253804,39.2035461],[-74.9252643,39.2034599],[-74.925167,39.2033808],[-74.9250333,39.2032728],[-74.9248742,39.2031452],[-74.9246072,39.2029934],[-74.92441,39.202861],[-74.9243398,39.2027873],[-74.9243205,39.2027332],[-74.9243203,39.2026965],[-74.9240086,39.2026346],[-74.9237742,39.2025912],[-74.9236475,39.2025719],[-74.9235304,39.2025676],[-74.9235273,39.2025674],[-74.9233945,39.2025876],[-74.9232998,39.2026224],[-74.9232179,39.2026966],[-74.9231363,39.2028052],[-74.9230553,39.2030172],[-74.9229937,39.2032833],[-74.9229759,39.2034803],[-74.9230019,39.2036033],[-74.9230659,39.2037163],[-74.923118,39.2037565],[-74.9231676,39.2037948],[-74.9233519,39.2039172],[-74.9234853,39.2040102],[-74.923568,39.2040789],[-74.9236064,39.2041477],[-74.9236132,39.2042314],[-74.9235881,39.2042708],[-74.9235314,39.2043006],[-74.9234302,39.2043108],[-74.9232782,39.2043015],[-74.9231008,39.2042628],[-74.9229804,39.2042287],[-74.9228474,39.2042144],[-74.9226702,39.2042249],[-74.9225628,39.2042549],[-74.9225123,39.2042748],[-74.9224367,39.2043292],[-74.922374,39.2044229],[-74.9223241,39.2045462],[-74.9222934,39.204699],[-74.9223068,39.2048269],[-74.9223518,39.2049548],[-74.9224065,39.2050615],[-74.9224223,39.2050924],[-74.9225308,39.2052397],[-74.922601,39.2053379],[-74.9226651,39.2054756],[-74.9227103,39.2056231],[-74.9227396,39.2057962],[-74.9227668,39.2059493],[-74.9227939,39.2060786],[-74.9228252,39.206201],[-74.9228518,39.2062588],[-74.9228959,39.2063097],[-74.922953,39.2063537],[-74.9230232,39.2063875],[-74.9230933,39.2063907],[-74.9231939,39.2063869],[-74.9232813,39.2063696],[-74.9234123,39.2063248],[-74.9234997,39.2062973],[-74.9236001,39.2062697],[-74.9236963,39.2062591],[-74.923797,39.2062588],[-74.9239152,39.206272],[-74.9239722,39.2062956],[-74.9240206,39.2063328],[-74.9240559,39.2063872],[-74.9240564,39.2063951],[-74.9240607,39.2064587],[-74.9240392,39.2065132],[-74.9239869,39.2065645],[-74.9238692,39.2066227],[-74.9236989,39.2066949],[-74.9235898,39.2067463],[-74.9235157,39.2067875],[-74.9234635,39.2068353],[-74.9233982,39.2069002],[-74.923368,39.2069684],[-74.9233469,39.2070876],[-74.9233387,39.2071796],[-74.9233526,39.2073089],[-74.9233885,39.2074586],[-74.92346,39.2077102],[-74.923531,39.2078768],[-74.9235751,39.2079209],[-74.9236037,39.2079319],[-74.9236189,39.2079377],[-74.9236889,39.2079375],[-74.9237807,39.2079235],[-74.9239467,39.2078855],[-74.9241216,39.207844],[-74.9241969,39.2078283],[-74.9242876,39.2078094],[-74.9243926,39.2077987],[-74.9244889,39.2078018],[-74.9245414,39.2078084],[-74.9245897,39.2078321],[-74.9246381,39.2078761],[-74.9246911,39.2079577],[-74.9247664,39.2081072],[-74.9248241,39.2082534],[-74.9248954,39.2084574],[-74.9249489,39.2086206],[-74.9249976,39.2087259],[-74.9250506,39.2087972],[-74.9251078,39.2088549],[-74.9251561,39.2088717],[-74.9252568,39.208885],[-74.9254493,39.2088877],[-74.9255674,39.2088736],[-74.925786,39.208849],[-74.9259392,39.208845],[-74.9260167,39.2088485],[-74.9260792,39.2088513],[-74.9261581,39.2088647],[-74.9262414,39.208895],[-74.9262941,39.208922],[-74.9263249,39.2089594],[-74.9263516,39.2090274],[-74.9263608,39.2091056],[-74.9263483,39.209201],[-74.9263138,39.2092862],[-74.9262312,39.2093853],[-74.9261574,39.2094775],[-74.9260967,39.2095662],[-74.9260535,39.2096583],[-74.9260278,39.2097469],[-74.9260064,39.2098355],[-74.9260118,39.2100091],[-74.9260344,39.2101247],[-74.9260393,39.2102166],[-74.9260222,39.2102814],[-74.925986,39.2103289],[-74.9259832,39.2103326],[-74.9258916,39.2103942],[-74.9257477,39.2104628],[-74.9255601,39.2105554],[-74.9254641,39.210617],[-74.9253856,39.210648],[-74.9253288,39.2106652],[-74.9252632,39.2106756],[-74.9251843,39.2106623],[-74.9251492,39.2106352],[-74.9251183,39.210591],[-74.9250959,39.210506],[-74.9250512,39.2103598],[-74.9250202,39.2102884],[-74.9249804,39.2102273],[-74.9249539,39.2101899],[-74.9249232,39.2101628],[-74.924888,39.2101459],[-74.9248398,39.2101291],[-74.9247391,39.2101158],[-74.9246123,39.2101333],[-74.9244986,39.2101508],[-74.9242581,39.2101857],[-74.9241226,39.2101964],[-74.923952,39.2102072],[-74.9238602,39.2102178],[-74.9237859,39.2102351],[-74.9237291,39.2102557],[-74.9236942,39.2102831],[-74.9236727,39.2103376],[-74.9236645,39.2104295],[-74.9236874,39.2105997],[-74.9237193,39.2107312],[-74.9237278,39.2107664],[-74.9237678,39.2108649],[-74.9238518,39.2110144],[-74.9239445,39.21114],[-74.9240812,39.2113234],[-74.9242223,39.2114931],[-74.9243632,39.2116423],[-74.9245172,39.211778],[-74.9246621,39.2118728],[-74.9247675,39.2119234],[-74.9249034,39.2119638],[-74.9250216,39.211977],[-74.9251749,39.2120003],[-74.925267,39.2120272],[-74.9253372,39.2120677],[-74.9253945,39.212122],[-74.9254432,39.2122171],[-74.9254788,39.2123192],[-74.9254881,39.2124076],[-74.9254623,39.212486],[-74.9254276,39.2125338],[-74.9253928,39.212568],[-74.9253055,39.2126091],[-74.9251177,39.2126779],[-74.924895,39.212757],[-74.9247336,39.2128291],[-74.924642,39.2128873],[-74.9245724,39.2129523],[-74.9245564,39.2129743],[-74.9244812,39.2130786],[-74.9244336,39.2131638],[-74.9244036,39.2132593],[-74.9243954,39.2133614],[-74.9244047,39.2134533],[-74.9244315,39.2135315],[-74.9244844,39.2136028],[-74.9245813,39.213708],[-74.9246694,39.2137962],[-74.9247573,39.2138571],[-74.9248494,39.2139011],[-74.9249371,39.213928],[-74.9250642,39.2139581],[-74.9251868,39.2139713],[-74.9253007,39.2139879],[-74.9254277,39.2140045],[-74.9255373,39.2140313],[-74.9256075,39.2140651],[-74.9256734,39.2141057],[-74.9257437,39.2141565],[-74.9257789,39.2141904],[-74.9258055,39.2142516],[-74.9258146,39.2143095],[-74.925811,39.214432],[-74.9257896,39.2145104],[-74.9257507,39.2145991],[-74.9256856,39.214681],[-74.9255464,39.2148177],[-74.9253985,39.2149646],[-74.9253072,39.2150671],[-74.925305,39.215069],[-74.9252289,39.2151388],[-74.9251767,39.2152003],[-74.9251421,39.2152651],[-74.9251338,39.2153332],[-74.9251472,39.2153911],[-74.925209,39.2154725],[-74.9252705,39.21552],[-74.9252969,39.2155338],[-74.9253671,39.2155707],[-74.9254767,39.2156043],[-74.9256171,39.2156549],[-74.9257444,39.2157157],[-74.925806,39.2157699],[-74.9258589,39.215831],[-74.9258986,39.215899],[-74.9259165,39.215967],[-74.9259214,39.2160487],[-74.9259003,39.2161713],[-74.9258531,39.2163281],[-74.9258013,39.216444],[-74.9257493,39.2165361],[-74.9256841,39.2166146],[-74.9256624,39.2166296],[-74.9256144,39.2166626],[-74.9255445,39.2166867],[-74.9254527,39.216704],[-74.9253477,39.2167112],[-74.925247,39.2166946],[-74.9251199,39.216661],[-74.925006,39.216641],[-74.9249184,39.2166311],[-74.9248222,39.2166417],[-74.9247391,39.2166624],[-74.9246169,39.2167071],[-74.9245515,39.2167448],[-74.9244775,39.2168199],[-74.9243949,39.2169156],[-74.9243212,39.217035],[-74.9242824,39.2171202],[-74.924261,39.2172054],[-74.9242485,39.217311],[-74.924245,39.2174438],[-74.9242678,39.2176003],[-74.9243126,39.2177771],[-74.924357,39.2178825],[-74.92441,39.2179572],[-74.9244759,39.2180114],[-74.9245462,39.218052],[-74.9245897,39.2180656],[-74.9246544,39.218073],[-74.9246892,39.2180749],[-74.9247488,39.2180688],[-74.9248456,39.218053],[-74.9249449,39.2180372],[-74.9250368,39.2180311],[-74.9251412,39.2180268],[-74.9252754,39.2180283],[-74.9253674,39.2180337],[-74.925442,39.218047],[-74.9255217,39.2180718],[-74.9255815,39.2181006],[-74.925609,39.2181256],[-74.9256491,39.2181777],[-74.9256742,39.2182375],[-74.9257099,39.2183766],[-74.9257279,39.2184809],[-74.9257511,39.218618],[-74.9257617,39.2187281],[-74.9257617,39.2187282],[-74.9257573,39.218821],[-74.925738,39.2189119],[-74.9257012,39.2189971],[-74.9256618,39.2190591],[-74.9256199,39.2191095],[-74.9255555,39.2191542],[-74.9254713,39.2191912],[-74.9253696,39.2192264],[-74.9252629,39.2192539],[-74.9251562,39.2192775],[-74.9250519,39.2192933],[-74.9249848,39.2192955],[-74.9249225,39.2192866],[-74.9249052,39.2192842],[-74.9248554,39.2192689],[-74.9248031,39.2192382],[-74.9247257,39.2191746],[-74.9246307,39.2190899],[-74.9245533,39.2190303],[-74.9244909,39.218988],[-74.9244037,39.2189419],[-74.9243464,39.2189189],[-74.9242742,39.2188999],[-74.9241971,39.2188924],[-74.9240704,39.2188967],[-74.9239835,39.2189183],[-74.9238794,39.2189554],[-74.9237431,39.2190294],[-74.9236837,39.2190663],[-74.9236367,39.2191013],[-74.9235502,39.219177],[-74.9235008,39.2192294],[-74.9234589,39.2192875],[-74.9234418,39.219334],[-74.9234298,39.2194055],[-74.9234303,39.2194848],[-74.9234407,39.2195679],[-74.9234762,39.2196876],[-74.9235216,39.2197899],[-74.9235518,39.2198536],[-74.9235795,39.2199153],[-74.9235997,39.2199771],[-74.9236101,39.2200447],[-74.923603,39.2201124],[-74.9235784,39.220155],[-74.9235488,39.2201841],[-74.9234943,39.2202133],[-74.92339,39.220233],[-74.9233057,39.2202527],[-74.923194,39.2202744],[-74.9230823,39.2203057],[-74.922993,39.2203331],[-74.9228665,39.2203761],[-74.9227773,39.220415],[-74.9227154,39.2204539],[-74.922656,39.2205006],[-74.922614,39.2205452],[-74.922592,39.2205955],[-74.9225798,39.22064],[-74.9225777,39.2207057],[-74.922583,39.2207598],[-74.9226082,39.2208197],[-74.9226457,39.2208582],[-74.9227131,39.2209024],[-74.9227879,39.2209427],[-74.9228702,39.2209908],[-74.9229326,39.2210331],[-74.9230323,39.2210869],[-74.9230925,39.2211182],[-74.9231171,39.221131],[-74.9232217,39.2211751],[-74.9233089,39.2212115],[-74.9234211,39.2212672],[-74.9235059,39.2213152],[-74.9235782,39.2213574],[-74.9236286,39.2213963],[-74.9236331,39.2213997],[-74.9236683,39.2214557],[-74.923686,39.2215117],[-74.9236914,39.2215851],[-74.9236869,39.2216605],[-74.9236674,39.2217321],[-74.9236062,39.2218812],[-74.9234885,39.2221464],[-74.9234493,39.2222336],[-74.9233902,39.2223208],[-74.9233285,39.2223983],[-74.923237,39.2224799],[-74.9231431,39.2225672],[-74.9231303,39.2225776],[-74.9230714,39.2226254],[-74.9230219,39.2226701],[-74.9229528,39.2227457],[-74.9228566,39.2228601],[-74.9227703,39.2229861],[-74.922731,39.2230597],[-74.9226967,39.223141],[-74.9226822,39.2232126],[-74.9226776,39.2232725],[-74.922683,39.2233421],[-74.922706,39.2234464],[-74.9227465,39.2235758],[-74.9227619,39.2236434],[-74.9227673,39.2237149],[-74.9227652,39.2237883],[-74.9227506,39.2238387],[-74.9227285,39.223889],[-74.9226916,39.2239394],[-74.9226446,39.2239821],[-74.9225604,39.2240346],[-74.9224737,39.2240813],[-74.922392,39.2241261],[-74.9223202,39.2241766],[-74.9222658,39.2242212],[-74.9222115,39.2242871],[-74.9221795,39.2243414],[-74.922155,39.2243956],[-74.9221356,39.2244846],[-74.9221089,39.2245891],[-74.9220771,39.2246704],[-74.9220599,39.2247053],[-74.922018,39.2247557],[-74.9219512,39.224812],[-74.9218769,39.2248606],[-74.9217853,39.2249131],[-74.921701,39.2249463],[-74.9215968,39.2249834],[-74.9215199,39.2250068],[-74.9214603,39.2250148],[-74.9213659,39.2250209],[-74.9212317,39.2250175],[-74.9210502,39.2250008],[-74.9209184,39.2249897],[-74.920895,39.2249865],[-74.920794,39.2249727],[-74.9207244,39.2249691],[-74.92062,39.2249714],[-74.920548,39.2249833],[-74.9204364,39.2250204],[-74.920305,39.2250808],[-74.9201787,39.2251586],[-74.9200698,39.2252228],[-74.9199979,39.225254],[-74.9199309,39.2252677],[-74.9198117,39.2252875],[-74.9196851,39.2253092],[-74.9195362,39.2253465],[-74.9194617,39.2253719],[-74.9193477,39.2254225],[-74.9192586,39.2254751],[-74.9191744,39.2255353],[-74.919115,39.2255722],[-74.9190506,39.2256111],[-74.919005,39.2256322],[-74.9189787,39.2256442],[-74.9189142,39.22566],[-74.9188471,39.2256679],[-74.9187502,39.2256663],[-74.9186682,39.2256608],[-74.9185488,39.2256439],[-74.9184442,39.2256172],[-74.9183172,39.2255712],[-74.918215,39.2255271],[-74.9181253,39.2254907],[-74.9180838,39.2254742],[-74.9180481,39.2254601],[-74.917966,39.2254372],[-74.9178864,39.2254317],[-74.917792,39.2254398],[-74.9177226,39.2254613],[-74.9176283,39.2255041],[-74.9175763,39.2255294],[-74.9175293,39.2255702],[-74.9174676,39.2256323],[-74.9173937,39.2257485],[-74.9173617,39.2258028],[-74.9173124,39.2258609],[-74.9172678,39.2258959],[-74.9172059,39.2259406],[-74.9171217,39.2259853],[-74.9170002,39.2260264],[-74.9168638,39.2260713],[-74.9167595,39.2260949],[-74.9166429,39.2261224],[-74.9165162,39.2261499],[-74.9164095,39.2261735],[-74.9162779,39.2261855],[-74.9161164,39.2261919],[-74.9159573,39.2261944],[-74.9157784,39.226197],[-74.9155547,39.2261997],[-74.9153808,39.2262042],[-74.9152665,39.2262143],[-74.9151547,39.2262263],[-74.9150356,39.226248],[-74.9149215,39.226289],[-74.9148472,39.2263337],[-74.9147755,39.2263958],[-74.9147287,39.2264656],[-74.9146893,39.2265411],[-74.9146377,39.2266418],[-74.9146008,39.2267],[-74.9145934,39.2267115],[-74.9145464,39.2267542],[-74.9144697,39.2268086],[-74.9143904,39.2268534],[-74.9143136,39.2268807],[-74.9143126,39.2268809],[-74.9142391,39.2268926],[-74.914085,39.2269028],[-74.9139807,39.226909],[-74.9138834,39.2269155],[-74.9138589,39.2269171],[-74.9137944,39.2269367],[-74.9136753,39.2269681],[-74.9135785,39.2269839],[-74.9134741,39.226992],[-74.9133275,39.2270022],[-74.9132008,39.2270007],[-74.9130864,39.2269856],[-74.9129695,39.2269706],[-74.9128899,39.2269689],[-74.912825,39.2269729],[-74.8963857,39.2350622],[-74.8821482,39.3083976],[-74.8816731,39.3078567],[-74.8814326,39.3076358],[-74.8811396,39.3072827],[-74.8798839,39.3061632],[-74.8796585,39.3059383],[-74.8788865,39.3054061],[-74.8774759,39.3046305],[-74.8765987,39.3040759],[-74.8760479,39.3038235],[-74.8748654,39.3030989],[-74.8743848,39.3029219],[-74.8734333,39.3023727],[-74.8725831,39.3019359],[-74.872198,39.3018102],[-74.8714744,39.3012875],[-74.8706339,39.30083],[-74.8697332,39.3004188],[-74.8692502,39.3002301],[-74.8687678,39.3000728],[-74.8676559,39.2996881],[-74.8668114,39.2994929],[-74.8657522,39.2988815],[-74.8655153,39.2987634],[-74.8652052,39.2986341],[-74.864924,39.2985389],[-74.8634649,39.2981173],[-74.8627112,39.2978404],[-74.8625583,39.2977925],[-74.8622437,39.2977156],[-74.861774,39.2976359],[-74.8609874,39.2975497],[-74.8591233,39.2973175],[-74.8581526,39.2971813],[-74.8563797,39.2967843],[-74.8558995,39.2966454],[-74.8551399,39.2960243],[-74.8545383,39.2955703],[-74.8541995,39.2953882],[-74.8536957,39.2952494],[-74.8533803,39.2950429],[-74.8534494,39.2947071],[-74.8532591,39.2943721],[-74.8525804,39.2938311],[-74.8517953,39.2929626],[-74.8506192,39.2919349],[-74.8500948,39.2913025],[-74.8487815,39.2903202],[-74.8477417,39.2893313],[-74.8470245,39.2888139],[-74.8462599,39.2882843],[-74.8454049,39.2874672],[-74.8447339,39.2865655],[-74.8444635,39.2861803],[-74.8440459,39.2859192],[-74.843262,39.2849398],[-74.8430474,39.2843529],[-74.8419825,39.2826544],[-74.8405732,39.2803401],[-74.8403039,39.2792605],[-74.839824,39.2783768],[-74.8393498,39.2769949],[-74.838685,39.2756675],[-74.8381146,39.2745577],[-74.8378561,39.2738844],[-74.8370845,39.27246],[-74.8370391,39.2720943],[-74.8360786,39.2711135],[-74.8355807,39.2706776],[-74.8350852,39.270129],[-74.8348432,39.2697363],[-74.8343226,39.2693811],[-74.8339504,39.269027],[-74.8335885,39.2685163],[-74.8332162,39.2681285],[-74.8328672,39.2677178],[-74.8160991,39.256526],[-74.8265481,39.248371],[-74.8271781,39.2478792],[-74.8283745,39.2469453],[-74.8320453,39.2440796],[-74.8322115,39.2439497],[-74.8354192,39.2413417],[-74.8416566,39.2362695],[-74.8416093,39.2342533],[-74.8344232,39.2296414],[-74.838123,39.2236507],[-74.8403004,39.2201247],[-74.8405754,39.2196792],[-74.841196,39.2186741],[-74.8411864,39.2186676],[-74.8411165,39.2186211],[-74.841251,39.2183875],[-74.8465654,39.2091417],[-74.8480142,39.2066207],[-74.8483967,39.2059551],[-74.8293696,39.2073133],[-74.8233916,39.2164371],[-74.8224928,39.2163102],[-74.8190574,39.2216779],[-74.8108177,39.2190813],[-74.8043178,39.2140254],[-74.7998279,39.2037966],[-74.7941928,39.2032718],[-74.7907999,39.2154657],[-74.7742236,39.214529],[-74.7660361,39.2236661],[-74.7296043,39.1998056]]]}}
